H1 CPF  1  HTS 2022  2  4 12  5351 larets           NONE
H2  0304206 5557    27944 2022 02 04  0  0  0 2022 02 09  0  0  0   180 1 1  0 0 0
H5  0.0560 
H9 
10 0 59615  83880.00000  0   -4881227.832   -4658162.169    2111216.110
10 0 59615  84060.00000  0   -5279845.876   -4634212.315     805821.192
10 0 59615  84240.00000  0   -5483921.369   -4434174.697    -529034.072
10 0 59615  84420.00000  0   -5481657.650   -4070625.411   -1844560.906
10 0 59615  84600.00000  0   -5269206.002   -3562306.823   -3092726.470
10 0 59615  84780.00000  0   -4850928.662   -2933207.449   -4228032.945
10 0 59615  84960.00000  0   -4239325.712   -2211447.814   -5209178.438
10 0 59615  85140.00000  0   -3454634.393   -1428029.662   -6000538.995
10 0 59615  85320.00000  0   -2524125.233    -615509.128   -6573420.585
10 0 59615  85500.00000  0   -1481130.131     193345.904   -6907046.797
10 0 59615  85680.00000  0    -363843.855     966856.944   -6989261.187
10 0 59615  85860.00000  0     786053.586    1675651.900   -6816942.639
10 0 59615  86040.00000  0    1924919.627    2293763.858   -6396134.265
10 0 59615  86220.00000  0    3008783.081    2799582.297   -5741874.005
10 0 59616      0.00000  0    3995033.354    3176622.700   -4877716.255
10 0 59616    180.00000  0    4844109.828    3414088.746   -3834954.609
10 0 59616    360.00000  0    5521132.406    3507203.297   -2651545.676
10 0 59616    540.00000  0    5997392.138    3457287.033   -1370755.842
10 0 59616    720.00000  0    6251628.689    3271574.744     -39571.613
10 0 59616    900.00000  0    6271019.539    2962768.032    1293065.695
10 0 59616   1080.00000  0    6051821.100    2548344.795    2578122.194
10 0 59616   1260.00000  0    5599622.526    2049665.499    3768344.259
10 0 59616   1440.00000  0    4929195.988    1490920.111    4820053.838
10 0 59616   1620.00000  0    4063956.439     897976.700    5694776.225
10 0 59616   1800.00000  0    3035072.315     297194.576    6360641.531
10 0 59616   1980.00000  0    1880269.766    -285738.022    6793507.612
10 0 59616   2160.00000  0     642402.910    -826887.726    6977782.369
10 0 59616   2340.00000  0    -632162.608   -1305046.233    6906938.729
10 0 59616   2520.00000  0   -1895292.147   -1702551.146    6583708.189
10 0 59616   2700.00000  0   -3098887.820   -2005929.406    6019960.451
10 0 59616   2880.00000  0   -4196707.397   -2206346.127    5236287.421
10 0 59616   3060.00000  0   -5146151.130   -2299853.357    4261285.059
10 0 59616   3240.00000  0   -5909937.439   -2287423.060    3130538.371
10 0 59616   3420.00000  0   -6457598.926   -2174761.625    1885346.820
10 0 59616   3600.00000  0   -6766740.864   -1971919.187     571224.606
10 0 59616   3780.00000  0   -6823990.548   -1692705.321    -763781.984
10 0 59616   3960.00000  0   -6625582.505   -1353937.871   -2070883.647
10 0 59616   4140.00000  0   -6177547.961    -974567.043   -3302365.080
10 0 59616   4320.00000  0   -5495503.809    -574722.240   -4413348.183
10 0 59616   4500.00000  0   -4604057.188    -174727.184   -5363429.061
10 0 59616   4680.00000  0   -3535860.169     205865.667   -6118123.807
10 0 59616   4860.00000  0   -2330365.498     549173.889   -6650073.423
10 0 59616   5040.00000  0   -1032347.970     839778.183   -6939979.112
10 0 59616   5220.00000  0     309752.138    1065381.158   -6977256.394
10 0 59616   5400.00000  0    1645605.701    1217311.073   -6760400.341
10 0 59616   5580.00000  0    2924850.105    1290854.952   -6297065.354
10 0 59616   5760.00000  0    4098971.995    1285410.651   -5603837.361
10 0 59616   5940.00000  0    5123150.485    1204449.291   -4705701.850
10 0 59616   6120.00000  0    5958006.334    1055289.509   -3635213.142
10 0 59616   6300.00000  0    6571184.188     848688.225   -2431367.276
10 0 59616   6480.00000  0    6938693.459     598261.871   -1138206.967
10 0 59616   6660.00000  0    7045933.746     319762.210     196804.741
10 0 59616   6840.00000  0    6888335.643      30242.361    1524573.309
10 0 59616   7020.00000  0    6471581.736    -252844.055    2796243.599
10 0 59616   7200.00000  0    5811385.271    -512562.368    3965067.929
10 0 59616   7380.00000  0    4932840.381    -733382.296    4988173.877
10 0 59616   7560.00000  0    3869391.315    -901982.847    5828157.444
10 0 59616   7740.00000  0    2661474.687   -1007935.257    6454436.825
10 0 59616   7920.00000  0    1354914.882   -1044233.740    6844325.046
10 0 59616   8100.00000  0       -857.187   -1007655.862    6983801.895
10 0 59616   8280.00000  0   -1354693.336    -898938.003    6867967.604
10 0 59616   8460.00000  0   -2655651.758    -722762.114    6501180.141
10 0 59616   8640.00000  0   -3854897.731    -487554.357    5896886.212
10 0 59616   8820.00000  0   -4907532.301    -205104.285    5077151.284
10 0 59616   9000.00000  0   -5774290.104     109981.163    4071886.400
10 0 59616   9180.00000  0   -6423036.416     440969.216    2917786.341
10 0 59616   9360.00000  0   -6830002.209     769811.134    1657011.828
10 0 59616   9540.00000  0   -6980703.610    1078033.953     335651.743
10 0 59616   9720.00000  0   -6870493.309    1347669.584    -997982.587
10 0 59616   9900.00000  0   -6504707.030    1562174.211   -2295157.478
10 0 59616  10080.00000  0   -5898402.904    1707290.731   -3508528.644
10 0 59616  10260.00000  0   -5075705.182    1771811.036   -4593893.055
10 0 59616  10440.00000  0   -4068787.337    1748195.130   -5511795.883
10 0 59616  10620.00000  0   -2916561.455    1633022.178   -6228931.958
10 0 59616  10800.00000  0   -1663142.551    1427255.391   -6719304.998
10 0 59616  10980.00000  0    -356149.289    1136312.209   -6965116.778
10 0 59616  11160.00000  0     955087.888     769938.436   -6957367.832
10 0 59616  11340.00000  0    2221355.061     341892.108   -6696176.368
10 0 59616  11520.00000  0    3395378.394    -130558.908   -6190801.175
10 0 59616  11700.00000  0    4433580.540    -627310.766   -5459358.399
10 0 59616  11880.00000  0    5297714.433   -1126250.170   -4528237.845
10 0 59616  12060.00000  0    5956325.002   -1604208.225   -3431220.328
10 0 59616  12240.00000  0    6385971.254   -2038004.696   -2208300.636
10 0 59616  12420.00000  0    6572145.567   -2405537.095    -904246.184
10 0 59616  12600.00000  0    6509834.990   -2686859.274     433061.057
10 0 59616  12780.00000  0    6203687.294   -2865191.596    1754432.657
10 0 59616  12960.00000  0    5667763.240   -2927805.669    3011252.829
10 0 59616  13140.00000  0    4924881.857   -2866733.801    4157334.617
10 0 59616  13320.00000  0    4005601.201   -2679262.358    5150660.877
10 0 59616  13500.00000  0    2946899.710   -2368191.666    5954939.454
10 0 59616  13680.00000  0    1790621.898   -1941849.872    6540912.347
10 0 59616  13860.00000  0     581775.274   -1413865.300    6887375.711
10 0 59616  14040.00000  0    -633248.232    -802712.718    6981893.542
10 0 59616  14220.00000  0   -1808455.497    -131051.504    6821195.380
10 0 59616  14400.00000  0   -2899980.745     575119.417    6411262.238
10 0 59616  14580.00000  0   -3867710.291    1287463.682    5767104.704
10 0 59616  14760.00000  0   -4676757.070    1976433.733    4912237.081
10 0 59616  14940.00000  0   -5298737.352    2612484.959    3877852.665
10 0 59616  15120.00000  0   -5712796.250    3167332.414    2701714.359
10 0 59616  15300.00000  0   -5906339.116    3615195.282    1426794.970
10 0 59616  15480.00000  0   -5875437.037    3933974.849      99705.420
10 0 59616  15660.00000  0   -5624875.458    4106301.696   -1231033.055
10 0 59616  15840.00000  0   -5167845.011    4120398.872   -2516796.530
10 0 59616  16020.00000  0   -4525283.998    3970714.525   -3710671.731
10 0 59616  16200.00000  0   -3724907.983    3658288.742   -4769184.973
10 0 59616  16380.00000  0   -2799988.168    3190844.008   -5653872.959
10 0 59616  16560.00000  0   -1787948.282    2582603.031   -6332642.549
10 0 59616  16740.00000  0    -728841.978    1853845.674   -6780886.879
10 0 59616  16920.00000  0     336225.803    1030223.858   -6982324.124
10 0 59616  17100.00000  0    1366670.372     141865.324   -6929551.944
10 0 59616  17280.00000  0    2323950.505    -777709.179   -6624313.554
10 0 59616  17460.00000  0    3172994.517   -1692826.843   -6077461.769
10 0 59616  17640.00000  0    3883486.401   -2567022.788   -5308624.819
10 0 59616  17820.00000  0    4430976.442   -3364485.152   -4345572.621
10 0 59616  18000.00000  0    4797768.017   -4051534.453   -3223275.806
10 0 59616  18180.00000  0    4973541.447   -4598069.552   -1982681.489
10 0 59616  18360.00000  0    4955684.130   -4978917.062    -669231.762
10 0 59616  18540.00000  0    4749295.571   -5175012.362     668827.235
10 0 59616  18720.00000  0    4366857.246   -5174340.246    1982274.671
10 0 59616  18900.00000  0    3827581.498   -4972577.777    3222796.466
10 0 59616  19080.00000  0    3156474.670   -4573406.039    4344824.353
10 0 59616  19260.00000  0    2383169.090   -3988475.766    5307250.039
10 0 59616  19440.00000  0    1540590.350   -3237033.248    6074939.565
10 0 59616  19620.00000  0     663529.059   -2345232.911    6619993.198
10 0 59616  19800.00000  0    -212813.328   -1345176.223    6922710.615
10 0 59616  19980.00000  0   -1054238.797    -273723.914    6972248.425
10 0 59616  20160.00000  0   -1828877.863     828877.266    6766966.815
10 0 59616  20340.00000  0   -2508385.350    1920505.463    6314461.190
10 0 59616  20520.00000  0   -3068969.592    2958763.528    5631283.828
10 0 59616  20700.00000  0   -3492225.295    3902619.546    4742364.173
10 0 59616  20880.00000  0   -3765745.746    4714034.032    3680134.799
10 0 59616  21060.00000  0   -3883488.186    5359512.663    2483378.510
10 0 59616  21240.00000  0   -3845873.664    5811514.403    1195824.877
10 0 59616  21420.00000  0   -3659615.186    6049644.656    -135452.554
10 0 59616  21600.00000  0   -3337283.853    6061579.690   -1461780.629
10 0 59616  21780.00000  0   -2896626.481    5843662.576   -2734707.418
99
